{"type": "FeatureCollection", "features": [ {"type": "Feature", "properties": {"norad_id": 41774, "name": "SKYSAT-C3", "group": "resource", "lat": 79.22291452840624, "lon": -122.77206855198608, "alt_km": 425.2500825797051, "timestamp": "2025-12-09T14:52:25.823363+00:00", "meta": {"OBJECT_NAME": "SKYSAT-C3", "OBJECT_ID": "2016-058E", "EPOCH": "2025-12-09T02:00:29.665152", "MEAN_MOTION": 15.44198745, "ECCENTRICITY": 0.00015972, "INCLINATION": 96.9299, "RA_OF_ASC_NODE": 17.0002, "ARG_OF_PERICENTER": 104.8504, "MEAN_ANOMALY": 255.2922, "EPHEMERIS_TYPE": 0, "CLASSIFICATION_TYPE": "U", "NORAD_CAT_ID": 41774, "ELEMENT_SET_NO": 999, "REV_AT_EPOCH": 51669, "BSTAR": 0.00047403943, "MEAN_MOTION_DOT": 0.00021701, "MEAN_MOTION_DDOT": 0}, "tle": {"line1": "1 41774U 16058E   25343.08367668  .00021701  00000+0  47404-3 0  9996", "line2": "2 41774  96.9299  17.0002 0001597 104.8504 255.2922 15.44198745516695"}}, "geometry": {"type": "Point", "coordinates": [-122.77206855198608, 79.22291452840624]}}, {"type": "Feature", "properties": {"norad_id": 41785, "name": "ALSAT 1B", "group": "resource", "lat": 45.92371906362311, "lon": -12.574596339652542, "alt_km": 647.369962413427, "timestamp": "2025-12-09T14:52:25.823379+00:00", "meta": {"OBJECT_NAME": "ALSAT 1B", "OBJECT_ID": "2016-059C", "EPOCH": "2025-12-09T08:08:16.976832", "MEAN_MOTION": 14.7206988, "ECCENTRICITY": 0.00105949, "INCLINATION": 97.7811, "RA_OF_ASC_NODE": 355.2753, "ARG_OF_PERICENTER": 112.7343, "MEAN_ANOMALY": 247.4986, "EPHEMERIS_TYPE": 0, "CLASSIFICATION_TYPE": "U", "NORAD_CAT_ID": 41785, "ELEMENT_SET_NO": 999, "REV_AT_EPOCH": 49264, "BSTAR": 0.0001193573, "MEAN_MOTION_DOT": 7.04e-06, "MEAN_MOTION_DDOT": 0}, "tle": {"line1": "1 41785U 16059C   25343.33908538  .00000704  00000+0  11936-3 0  9995", "line2": "2 41785  97.7811 355.2753 0010594 112.7343 247.4986 14.72069880492640"}}, "geometry": {"type": "Point", "coordinates": [-12.574596339652542, 45.92371906362311]}}, {"type": "Feature", "properties": {"norad_id": 41787, "name": "PATHFINDER 1", "group": "resource", "lat": 0.9428095086138456, "lon": 166.66762692982712, "alt_km": 671.8802522292881, "timestamp": "2025-12-09T14:52:25.823389+00:00", "meta": {"OBJECT_NAME": "PATHFINDER 1", "OBJECT_ID": "2016-059E", "EPOCH": "2025-12-08T23:20:03.761664", "MEAN_MOTION": 14.67309943, "ECCENTRICITY": 0.0030056, "INCLINATION": 97.8138, "RA_OF_ASC_NODE": 345.9207, "ARG_OF_PERICENTER": 92.6206, "MEAN_ANOMALY": 267.844, "EPHEMERIS_TYPE": 0, "CLASSIFICATION_TYPE": "U", "NORAD_CAT_ID": 41787, "ELEMENT_SET_NO": 999, "REV_AT_EPOCH": 49181, "BSTAR": 0.0002191, "MEAN_MOTION_DOT": 1.198e-05, "MEAN_MOTION_DDOT": 0}, "tle": {"line1": "1 41787U 16059E   25342.97226576  .00001198  00000+0  21910-3 0  9992", "line2": "2 41787  97.8138 345.9207 0030056  92.6206 267.8440 14.67309943491814"}}, "geometry": {"type": "Point", "coordinates": [166.66762692982712, 0.9428095086138456]}}, {"type": "Feature", "properties": {"norad_id": 41790, "name": "SCATSAT 1", "group": "resource", "lat": 39.633911504778105, "lon": 33.43702922534993, "alt_km": 634.7124223321789, "timestamp": "2025-12-09T14:52:25.823400+00:00", "meta": {"OBJECT_NAME": "SCATSAT 1", "OBJECT_ID": "2016-059H", "EPOCH": "2025-12-09T03:19:31.895040", "MEAN_MOTION": 14.78916478, "ECCENTRICITY": 0.00560805, "INCLINATION": 98.1466, "RA_OF_ASC_NODE": 39.7639, "ARG_OF_PERICENTER": 139.3888, "MEAN_ANOMALY": 221.1527, "EPHEMERIS_TYPE": 0, "CLASSIFICATION_TYPE": "U", "NORAD_CAT_ID": 41790, "ELEMENT_SET_NO": 999, "REV_AT_EPOCH": 7349, "BSTAR": 0.00029702925, "MEAN_MOTION_DOT": 2.192e-05, "MEAN_MOTION_DDOT": 0}, "tle": {"line1": "1 41790U 16059H   25343.13856360  .00002192  00000+0  29703-3 0  9998", "line2": "2 41790  98.1466  39.7639 0056080 139.3888 221.1527 14.78916478 73491"}}, "geometry": {"type": "Point", "coordinates": [33.43702922534993, 39.633911504778105]}}, {"type": "Feature", "properties": {"norad_id": 41875, "name": "GOKTURK 1A", "group": "resource", "lat": -52.71055250970327, "lon": -113.13662614548187, "alt_km": 691.7728260030144, "timestamp": "2025-12-09T14:52:25.823410+00:00", "meta": {"OBJECT_NAME": "GOKTURK 1A", "OBJECT_ID": "2016-073A", "EPOCH": "2025-12-09T06:54:34.091712", "MEAN_MOTION": 14.62773388, "ECCENTRICITY": 0.00012594, "INCLINATION": 98.1428, "RA_OF_ASC_NODE": 235.6988, "ARG_OF_PERICENTER": 77.2419, "MEAN_ANOMALY": 282.8923, "EPHEMERIS_TYPE": 0, "CLASSIFICATION_TYPE": "U", "NORAD_CAT_ID": 41875, "ELEMENT_SET_NO": 999, "REV_AT_EPOCH": 48106, "BSTAR": 0.00017455792, "MEAN_MOTION_DOT": 8.43e-06, "MEAN_MOTION_DDOT": 0}, "tle": {"line1": "1 41875U 16073A   25343.28789458  .00000843  00000+0  17456-3 0  9990", "line2": "2 41875  98.1428 235.6988 0001259  77.2419 282.8923 14.62773388481069"}}, "geometry": {"type": "Point", "coordinates": [-113.13662614548187, -52.71055250970327]}}, {"type": "Feature", "properties": {"norad_id": 41877, "name": "RESOURCESAT-2A", "group": "resource", "lat": 78.64220530079099, "lon": -76.23941076941885, "alt_km": 813.4055062169846, "timestamp": "2025-12-09T14:52:25.823420+00:00", "meta": {"OBJECT_NAME": "RESOURCESAT-2A", "OBJECT_ID": "2016-074A", "EPOCH": "2025-12-09T07:39:41.002848", "MEAN_MOTION": 14.21598169, "ECCENTRICITY": 0.00011303, "INCLINATION": 98.7758, "RA_OF_ASC_NODE": 53.195, "ARG_OF_PERICENTER": 272.738, "MEAN_ANOMALY": 87.3668, "EPHEMERIS_TYPE": 0, "CLASSIFICATION_TYPE": "U", "NORAD_CAT_ID": 41877, "ELEMENT_SET_NO": 999, "REV_AT_EPOCH": 46732, "BSTAR": 0.00025547747, "MEAN_MOTION_DOT": 5.16e-06, "MEAN_MOTION_DDOT": 0}, "tle": {"line1": "1 41877U 16074A   25343.31922457  .00000516  00000+0  25548-3 0  9993", "line2": "2 41877  98.7758  53.1950 0001130 272.7380  87.3668 14.21598169467326"}}, "geometry": {"type": "Point", "coordinates": [-76.23941076941885, 78.64220530079099]}}, {"type": "Feature", "properties": {"norad_id": 41948, "name": "CARTOSAT-2D", "group": "resource", "lat": 82.45416377691879, "lon": -39.35466628355239, "alt_km": 500.3569493237992, "timestamp": "2025-12-09T14:52:25.823433+00:00", "meta": {"OBJECT_NAME": "CARTOSAT-2D", "OBJECT_ID": "2017-008A", "EPOCH": "2025-12-09T08:09:40.705344", "MEAN_MOTION": 15.19203823, "ECCENTRICITY": 0.00043654, "INCLINATION": 97.4388, "RA_OF_ASC_NODE": 40.889, "ARG_OF_PERICENTER": 171.9002, "MEAN_ANOMALY": 188.2304, "EPHEMERIS_TYPE": 0, "CLASSIFICATION_TYPE": "U", "NORAD_CAT_ID": 41948, "ELEMENT_SET_NO": 999, "REV_AT_EPOCH": 48875, "BSTAR": 0.00032358884, "MEAN_MOTION_DOT": 6.746e-05, "MEAN_MOTION_DDOT": 0}, "tle": {"line1": "1 41948U 17008A   25343.34005446  .00006746  00000+0  32359-3 0  9992", "line2": "2 41948  97.4388  40.8890 0004365 171.9002 188.2304 15.19203823488756"}}, "geometry": {"type": "Point", "coordinates": [-39.35466628355239, 82.45416377691879]}}, {"type": "Feature", "properties": {"norad_id": 42063, "name": "SENTINEL-2B", "group": "resource", "lat": -37.15659477078065, "lon": 62.67288915558129, "alt_km": 795.8773406088176, "timestamp": "2025-12-09T14:52:25.823444+00:00", "meta": {"OBJECT_NAME": "SENTINEL-2B", "OBJECT_ID": "2017-013A", "EPOCH": "2025-12-09T06:39:28.185984", "MEAN_MOTION": 14.30813224, "ECCENTRICITY": 0.00011276, "INCLINATION": 98.5717, "RA_OF_ASC_NODE": 55.7719, "ARG_OF_PERICENTER": 94.3623, "MEAN_ANOMALY": 265.7689, "EPHEMERIS_TYPE": 0, "CLASSIFICATION_TYPE": "U", "NORAD_CAT_ID": 42063, "ELEMENT_SET_NO": 999, "REV_AT_EPOCH": 45748, "BSTAR": 1.9215748e-05, "MEAN_MOTION_DOT": 7e-08, "MEAN_MOTION_DDOT": 0}, "tle": {"line1": "1 42063U 17013A   25343.27740956  .00000007  00000+0  19216-4 0  9993", "line2": "2 42063  98.5717  55.7719 0001127  94.3623 265.7689 14.30813224457485"}}, "geometry": {"type": "Point", "coordinates": [62.67288915558129, -37.15659477078065]}}, {"type": "Feature", "properties": {"norad_id": 42767, "name": "CARTOSAT-2E", "group": "resource", "lat": -0.5830196031731987, "lon": 41.32300469504922, "alt_km": 511.65853710295414, "timestamp": "2025-12-09T14:52:25.823454+00:00", "meta": {"OBJECT_NAME": "CARTOSAT-2E", "OBJECT_ID": "2017-036C", "EPOCH": "2025-12-09T06:58:22.224864", "MEAN_MOTION": 15.19266248, "ECCENTRICITY": 0.00023488, "INCLINATION": 97.4558, "RA_OF_ASC_NODE": 40.9217, "ARG_OF_PERICENTER": 254.5527, "MEAN_ANOMALY": 105.5448, "EPHEMERIS_TYPE": 0, "CLASSIFICATION_TYPE": "U", "NORAD_CAT_ID": 42767, "ELEMENT_SET_NO": 999, "REV_AT_EPOCH": 46931, "BSTAR": 0.00026429143, "MEAN_MOTION_DOT": 5.505e-05, "MEAN_MOTION_DDOT": 0}, "tle": {"line1": "1 42767U 17036C   25343.29053501  .00005505  00000+0  26429-3 0  9995", "line2": "2 42767  97.4558  40.9217 0002348 254.5527 105.5448 15.19266248469310"}}, "geometry": {"type": "Point", "coordinates": [41.32300469504922, -0.5830196031731987]}}, {"type": "Feature", "properties": {"norad_id": 42920, "name": "FORMOSAT-5", "group": "resource", "lat": 78.35303437632325, "lon": -77.29133213607685, "alt_km": 721.3332690903007, "timestamp": "2025-12-09T14:52:25.823465+00:00", "meta": {"OBJECT_NAME": "FORMOSAT-5", "OBJECT_ID": "2017-049A", "EPOCH": "2025-12-09T06:08:51.391104", "MEAN_MOTION": 14.5100247, "ECCENTRICITY": 0.00100258, "INCLINATION": 98.2455, "RA_OF_ASC_NODE": 57.6442, "ARG_OF_PERICENTER": 307.3514, "MEAN_ANOMALY": 52.6767, "EPHEMERIS_TYPE": 0, "CLASSIFICATION_TYPE": "U", "NORAD_CAT_ID": 42920, "ELEMENT_SET_NO": 999, "REV_AT_EPOCH": 43913, "BSTAR": 0.00013585884, "MEAN_MOTION_DOT": 4.94e-06, "MEAN_MOTION_DDOT": 0}, "tle": {"line1": "1 42920U 17049A   25343.25615036  .00000494  00000+0  13586-3 0  9995", "line2": "2 42920  98.2455  57.6442 0010025 307.3514  52.6767 14.51002470439138"}}, "geometry": {"type": "Point", "coordinates": [-77.29133213607685, 78.35303437632325]}}]}